SL-16 R/B               
1 23405U 94077B   26166.91944684  .00000023  00000+0  36468-4 0  9992
2 23405  70.9808 145.8294 0002865 328.9064  31.1889 14.15571867630132
ARIANE 40+ R/B          
1 23561U 95021B   26166.96404469  .00000221  00000+0  84114-4 0  9993
2 23561  98.4411 237.0566 0006370 197.4014 335.5272 14.39832720633386
SL-16 R/B               
1 23705U 95058B   26166.86051173  .00000280  00000+0  16732-3 0  9997
2 23705  71.0219 334.1439 0013700 322.3325  37.6837 14.15507699581743
SL-16 R/B               
1 24298U 96051B   26166.89824595  .00000105  00000+0  83544-4 0  9990
2 24298  70.7640 327.3766 0015361 338.8233  21.2249 14.12445430535518
ORBVIEW 2 (SEASTAR)     
1 24883U 97037A   26166.97448626  .00000164  00000+0  73194-4 0  9996
2 24883  98.8686 333.9599 0003157 118.5402 241.6101 14.35552755522578
SL-16 R/B               
1 25400U 98043G   26166.88951581  .00000033  00000+0  32562-4 0  9998
2 25400  98.8363 121.0375 0010938  89.6900 270.5533 14.26068443452983
SL-16 R/B               
1 25407U 98045B   26166.89388694 -.00000247  00000+0 -10040-3 0  9992
2 25407  71.0119 335.0498 0009446 243.1829 116.8328 14.16203653441002
ISS (ZARYA)             
1 25544U 98067A   26166.83490248  .00007214  00000+0  13778-3 0  9991
2 25544  51.6337 306.7860 0004812 190.3373 169.7517 15.49248206571547
CZ-4B R/B               
1 25732U 99025C   26166.73724563  .00000053  00000+0  45901-4 0  9992
2 25732  98.6484 208.6122 0038122  63.7228  49.0783 14.18283253402065
OKEAN-O                 
1 25860U 99039A   26166.92821284  .00000510  00000+0  73445-4 0  9990
2 25860  97.9318 225.7406 0001655  72.9952 287.1442 14.80465876448921
SL-16 R/B               
1 25861U 99039B   26166.88363432  .00000417  00000+0  59565-4 0  9995
2 25861  97.9838 225.7503 0013533 301.5853  58.4038 14.81843986451406
DELTA 2 R/B             
1 25876U 99041E   26166.54747938  .00000633  00000+0  13968-3 0  9990
2 25876  51.7657 270.3469 0500849 277.1692  77.2575 14.12013801376855
HELIOS 1B               
1 25977U 99064A   26166.69924314  .00001214  00000+0  13863-3 0  9998
2 25977  98.1616  71.7960 0002474  93.2850 266.8649 14.88003237699839
TERRA                   
1 25994U 99068A   26166.91984186  .00000303  00000+0  70748-4 0  9993
2 25994  97.9457 216.5163 0001476 193.9796 216.8291 14.61102090409420
SL-16 R/B               
1 26070U 00006B   26166.93477874 -.00000112  00000+0 -32468-4 0  9993
2 26070  71.0022 251.2584 0015477  24.8971 335.2895 14.15834105362469
TITAN 4B R/B            
1 26474U 00047B   26166.93434903  .00002588  00000+0  16268-3 0  9998
2 26474  67.9880 124.0995 0045705 288.4441  71.1743 15.10191344407749
ENVISAT                 
1 27386U 02009A   26166.85801398  .00000062  00000+0  34021-4 0  9991
2 27386  98.3834 118.2060 0001342  88.8797 329.4399 14.39064533273298
IDEFIX & ARIANE 42P R/B 
1 27422U 02021B   26166.80114352  .00000171  00000+0  81367-4 0  9994
2 27422  98.5943 104.2992 0010580 258.5035 101.4960 14.31081527258059
AQUA                    
1 27424U 02022A   26166.88927275  .00000655  00000+0  14002-3 0  9999
2 27424  98.4276 136.1462 0001147  52.7945   0.2603 14.62156455283086
CZ-4B R/B               
1 27432U 02024C   26166.91830191  .00000042  00000+0  44005-4 0  9991
2 27432  98.8701 219.7468 0051193 103.7633  68.7589 14.14564225243121
MIDORI II (ADEOS-II)    
1 27597U 02056A   26166.87803640  .00000204  00000+0  98078-4 0  9991
2 27597  98.7877 126.1267 0002211  78.7979 281.3451 14.29348990224322
H-2A R/B                
1 27601U 02056E   26166.89606318  .00000148  00000+0  66595-4 0  9998
2 27601  98.3311 123.6176 0069132 228.4736 196.6981 14.33821544228188
CZ-4B R/B               
1 28059U 03049C   26166.92472456  .00000238  00000+0  66348-4 0  9993
2 28059  98.6895 165.7209 0046996 292.5325  67.0901 14.55099437200881
CZ-2C R/B               
1 28222U 04012C   26166.82920549  .00082952  00000+0  47046-3 0  9992
2 28222  97.7091 242.3342 0009313 289.4594  70.5666 15.78749620219683
SL-16 R/B               
1 28353U 04021B   26166.88846704 -.00000261  00000+0 -11071-3 0  9997
2 28353  71.0010  26.4149 0007324 256.5195 103.5111 14.14608906136727
CZ-4B R/B               
1 28415U 04035C   26166.82511259  .00006514  00000+0  21976-3 0  9999
2 28415  97.3362 199.9139 0030022 342.9689  17.0542 15.30609826194914
CZ-2C R/B               
1 28480U 04046B   26166.71905188  .00000060  00000+0  37822-4 0  9997
2 28480  98.1946  75.5916 0138420 224.6420 134.3551 14.27026214122480
ARIANE 5 R/B            
1 28499U 04049H   26166.98512463  .00000558  00000+0  67829-4 0  9991
2 28499  98.2720 339.1916 0084585  33.2866 327.3627 14.85447649160382
CZ-2D R/B               
1 28738U 05024B   26166.62536012  .00047953  00000+0  40891-3 0  9997
2 28738  97.3476 185.9759 0003610  57.9356 302.2256 15.69401303155097
ALOS (DAICHI)           
1 28931U 06002A   26166.86533754  .00000909  00000+0  15979-3 0  9994
2 28931  98.1323 122.4367 0001496  57.2624 302.8726 14.70048030 87901
