OBJECT_NAME,OBJECT_ID,EPOCH,MEAN_MOTION,ECCENTRICITY,INCLINATION,RA_OF_ASC_NODE,ARG_OF_PERICENTER,MEAN_ANOMALY,EPHEMERIS_TYPE,CLASSIFICATION_TYPE,NORAD_CAT_ID,ELEMENT_SET_NO,REV_AT_EPOCH,BSTAR,MEAN_MOTION_DOT,MEAN_MOTION_DDOT
SL-16 R/B,1994-077B,2026-06-15T22:04:00.206976,14.15571867,.00028653,70.9808,145.8294,328.9064,31.1889,0,U,23405,999,63013,.36467961E-4,.23E-6,0
ARIANE 40+ R/B,1995-021B,2026-06-15T23:08:13.461216,14.39832720,.00063705,98.4411,237.0566,197.4014,335.5272,0,U,23561,999,63338,.84113732E-4,.221E-5,0
SL-16 R/B,1995-058B,2026-06-15T20:39:08.213472,14.15507699,.00137009,71.0219,334.1439,322.3325,37.6837,0,U,23705,999,58174,.16732343E-3,.28E-5,0
SL-16 R/B,1996-051B,2026-06-15T21:33:28.450080,14.12445430,.00153617,70.7640,327.3766,338.8233,21.2249,0,U,24298,999,53551,.83544494E-4,.105E-5,0
ORBVIEW 2 (SEASTAR),1997-037A,2026-06-15T23:23:15.612864,14.35552755,.00031572,98.8686,333.9599,118.5402,241.6101,0,U,24883,999,52257,.73193589E-4,.164E-5,0
SL-16 R/B,1998-043G,2026-06-15T21:20:54.165984,14.26068443,.00109386,98.8363,121.0375,89.6900,270.5533,0,U,25400,999,45298,.32562112E-4,.33E-6,0
SL-16 R/B,1998-045B,2026-06-15T21:27:11.831616,14.16203653,.00094461,71.0119,335.0498,243.1829,116.8328,0,U,25407,999,44100,-.10040331E-3,-.247E-5,0
ISS (ZARYA),1998-067A,2026-06-15T20:02:15.574272,15.49248206,.00048127,51.6337,306.7860,190.3373,169.7517,0,U,25544,999,57154,.13777633E-3,.7214E-4,0
CZ-4B R/B,1999-025C,2026-06-15T17:41:38.022432,14.18283253,.00381222,98.6484,208.6122,63.7228,49.0783,0,U,25732,999,40206,.4590091E-4,.53E-6,0
OKEAN-O,1999-039A,2026-06-15T22:16:37.589376,14.80465876,.00016557,97.9318,225.7406,72.9952,287.1442,0,U,25860,999,44892,.73445251E-4,.51E-5,0
SL-16 R/B,1999-039B,2026-06-15T21:12:26.005248,14.81843986,.00135338,97.9838,225.7503,301.5853,58.4038,0,U,25861,999,45140,.59565477E-4,.417E-5,0
DELTA 2 R/B,1999-041E,2026-06-15T13:08:22.218432,14.12013801,.05008493,51.7657,270.3469,277.1692,77.2575,0,U,25876,999,37685,.13967699E-3,.633E-5,0
HELIOS 1B,1999-064A,2026-06-15T16:46:54.607296,14.88003237,.0002474,98.1616,71.7960,93.2850,266.8649,0,U,25977,999,69983,.13863002E-3,.1214E-4,0
TERRA,1999-068A,2026-06-15T22:04:34.336704,14.61102090,.00014763,97.9457,216.5163,193.9796,216.8291,0,U,25994,999,40942,.70748188E-4,.303E-5,0
SL-16 R/B,2000-006B,2026-06-15T22:26:04.883136,14.15834105,.00154775,71.0022,251.2584,24.8971,335.2895,0,U,26070,999,36246,-.32467731E-4,-.112E-5,0
TITAN 4B R/B,2000-047B,2026-06-15T22:25:27.756192,15.10191344,.00457052,67.9880,124.0995,288.4441,71.1743,0,U,26474,999,40774,.16267504E-3,.2588E-4,0
ENVISAT,2002-009A,2026-06-15T20:35:32.407872,14.39064533,.00013422,98.3834,118.2060,88.8797,329.4399,0,U,27386,999,27329,.34020619E-4,.62E-6,0
IDEFIX & ARIANE 42P R/B,2002-021B,2026-06-15T19:13:38.800128,14.31081527,.00105806,98.5943,104.2992,258.5035,101.4960,0,U,27422,999,25805,.81366768E-4,.171E-5,0
AQUA,2002-022A,2026-06-15T21:20:33.165600,14.62156455,.0001147,98.4276,136.1462,52.7945,0.2603,0,U,27424,999,28308,.14002469E-3,.655E-5,0
CZ-4B R/B,2002-024C,2026-06-15T22:02:21.285024,14.14564225,.00511935,98.8701,219.7468,103.7633,68.7589,0,U,27432,999,24312,.44004842E-4,.42E-6,0
MIDORI II (ADEOS-II),2002-056A,2026-06-15T21:04:22.344960,14.29348990,.00022118,98.7877,126.1267,78.7979,281.3451,0,U,27597,999,22432,.98077793E-4,.204E-5,0
H-2A R/B,2002-056E,2026-06-15T21:30:19.858752,14.33821544,.00691323,98.3311,123.6176,228.4736,196.6981,0,U,27601,999,22818,.66595153E-4,.148E-5,0
CZ-4B R/B,2003-049C,2026-06-15T22:11:36.201984,14.55099437,.00469963,98.6895,165.7209,292.5325,67.0901,0,U,28059,999,20088,.66347824E-4,.238E-5,0
CZ-2C R/B,2004-012C,2026-06-15T19:54:03.354336,15.78749620,.00093131,97.7091,242.3342,289.4594,70.5666,0,U,28222,999,21968,.4704553E-3,.82952E-3,0
SL-16 R/B,2004-021B,2026-06-15T21:19:23.552256,14.14608906,.0007324,71.0010,26.4149,256.5195,103.5111,0,U,28353,999,13672,-.11071211E-3,-.261E-5,0
CZ-4B R/B,2004-035C,2026-06-15T19:48:09.727776,15.30609826,.00300225,97.3362,199.9139,342.9689,17.0542,0,U,28415,999,19491,.21975829E-3,.6514E-4,0
CZ-2C R/B,2004-046B,2026-06-15T17:15:26.082432,14.27026214,.01384205,98.1946,75.5916,224.6420,134.3551,0,U,28480,999,12248,.37822113E-4,.6E-6,0
ARIANE 5 R/B,2004-049H,2026-06-15T23:38:34.768032,14.85447649,.00845857,98.2720,339.1916,33.2866,327.3627,0,U,28499,999,16038,.67829338E-4,.558E-5,0
CZ-2D R/B,2005-024B,2026-06-15T15:00:31.114368,15.69401303,.00036104,97.3476,185.9759,57.9356,302.2256,0,U,28738,999,15509,.40891067E-3,.47953E-3,0
ALOS (DAICHI),2006-002A,2026-06-15T20:46:05.163456,14.70048030,.00014964,98.1323,122.4367,57.2624,302.8726,0,U,28931,999,8790,.15979194E-3,.909E-5,0
